{
  "type": "FeatureCollection",
  "features": [
    {
      "type": "Feature",
      "properties": {
        "norad_id": 37918,
        "name": "FENGYUN 1C DEB",
        "group": "fengyun-1c-debris",
        "lat": 71.78435438909996,
        "lon": 147.22686661364955,
        "alt_km": 809.1903410023933,
        "timestamp": "2025-12-14T18:52:55.793033+00:00",
        "meta_object_name": "FENGYUN 1C DEB",
        "meta_object_id": "1999-025ENT",
        "meta_epoch": "2025-12-12T14:29:21.042528",
        "meta_mean_motion": 14.34385023,
        "meta_eccentricity": 0.00551873,
        "meta_inclination": 99.0279,
        "meta_ra_of_asc_node": 296.0587,
        "meta_arg_of_pericenter": 284.0571,
        "meta_mean_anomaly": 75.4482,
        "meta_ephemeris_type": 0,
        "meta_classification_type": "U",
        "meta_norad_cat_id": 37918,
        "meta_element_set_no": 999,
        "meta_rev_at_epoch": 3540,
        "meta_bstar": 0.0012154208,
        "meta_mean_motion_dot": 3.431e-05,
        "meta_mean_motion_ddot": 0,
        "tle_line1": "1 37918U 99025ENT 25346.60371577  .00003431  00000+0  12154-2 0  9994",
        "tle_line2": "2 37918  99.0279 296.0587 0055187 284.0571  75.4482 14.34385023 35401"
      },
      "geometry": {
        "type": "Point",
        "coordinates": [
          147.22686661364955,
          71.78435438909996
        ]
      }
    },
    {
      "type": "Feature",
      "properties": {
        "norad_id": 37919,
        "name": "FENGYUN 1C DEB",
        "group": "fengyun-1c-debris",
        "lat": -42.62957891748488,
        "lon": 98.36319002716039,
        "alt_km": 839.0808595671888,
        "timestamp": "2025-12-14T18:52:55.793043+00:00",
        "meta_object_name": "FENGYUN 1C DEB",
        "meta_object_id": "1999-025ENU",
        "meta_epoch": "2025-12-12T06:55:51.957984",
        "meta_mean_motion": 14.2676163,
        "meta_eccentricity": 0.00496798,
        "meta_inclination": 99.0576,
        "meta_ra_of_asc_node": 284.2227,
        "meta_arg_of_pericenter": 17.6806,
        "meta_mean_anomaly": 342.6088,
        "meta_ephemeris_type": 0,
        "meta_classification_type": "U",
        "meta_norad_cat_id": 37919,
        "meta_element_set_no": 999,
        "meta_rev_at_epoch": 64902,
        "meta_bstar": 0.00082874062,
        "meta_mean_motion_dot": 1.986e-05,
        "meta_mean_motion_ddot": 0,
        "tle_line1": "1 37919U 99025ENU 25346.28879581  .00001986  00000+0  82874-3 0  9997",
        "tle_line2": "2 37919  99.0576 284.2227 0049679  17.6806 342.6088 14.26761630649025"
      },
      "geometry": {
        "type": "Point",
        "coordinates": [
          98.36319002716039,
          -42.62957891748488
        ]
      }
    },
    {
      "type": "Feature",
      "properties": {
        "norad_id": 37921,
        "name": "FENGYUN 1C DEB",
        "group": "fengyun-1c-debris",
        "lat": -73.21966802183151,
        "lon": 61.615376727716914,
        "alt_km": 978.1982579064934,
        "timestamp": "2025-12-14T18:52:55.793053+00:00",
        "meta_object_name": "FENGYUN 1C DEB",
        "meta_object_id": "1999-025ENW",
        "meta_epoch": "2025-12-12T08:43:43.070016",
        "meta_mean_motion": 13.95155654,
        "meta_eccentricity": 0.00843507,
        "meta_inclination": 99.0222,
        "meta_ra_of_asc_node": 27.4497,
        "meta_arg_of_pericenter": 99.7165,
        "meta_mean_anomaly": 261.3537,
        "meta_ephemeris_type": 0,
        "meta_classification_type": "U",
        "meta_norad_cat_id": 37921,
        "meta_element_set_no": 999,
        "meta_rev_at_epoch": 63142,
        "meta_bstar": 0.00015923502,
        "meta_mean_motion_dot": 1.79e-06,
        "meta_mean_motion_ddot": 0,
        "tle_line1": "1 37921U 99025ENW 25346.36369294  .00000179  00000+0  15924-3 0  9999",
        "tle_line2": "2 37921  99.0222  27.4497 0084350  99.7165 261.3537 13.95155654631425"
      },
      "geometry": {
        "type": "Point",
        "coordinates": [
          61.615376727716914,
          -73.21966802183151
        ]
      }
    },
    {
      "type": "Feature",
      "properties": {
        "norad_id": 37925,
        "name": "FENGYUN 1C DEB",
        "group": "fengyun-1c-debris",
        "lat": -35.46694343002341,
        "lon": -135.2427382583118,
        "alt_km": 595.7573272011932,
        "timestamp": "2025-12-14T18:52:55.793063+00:00",
        "meta_object_name": "FENGYUN 1C DEB",
        "meta_object_id": "1999-025EPA",
        "meta_epoch": "2025-12-13T21:57:14.668704",
        "meta_mean_motion": 14.8032494,
        "meta_eccentricity": 0.0056609,
        "meta_inclination": 99.0869,
        "meta_ra_of_asc_node": 217.2239,
        "meta_arg_of_pericenter": 339.4126,
        "meta_mean_anomaly": 20.4801,
        "meta_ephemeris_type": 0,
        "meta_classification_type": "U",
        "meta_norad_cat_id": 37925,
        "meta_element_set_no": 999,
        "meta_rev_at_epoch": 65700,
        "meta_bstar": 0.0020655295,
        "meta_mean_motion_dot": 0.00016148,
        "meta_mean_motion_ddot": 0,
        "tle_line1": "1 37925U 99025EPA 25347.91475311  .00016148  00000+0  20655-2 0  9992",
        "tle_line2": "2 37925  99.0869 217.2239 0056609 339.4126  20.4801 14.80324940657007"
      },
      "geometry": {
        "type": "Point",
        "coordinates": [
          -135.2427382583118,
          -35.46694343002341
        ]
      }
    },
    {
      "type": "Feature",
      "properties": {
        "norad_id": 37926,
        "name": "FENGYUN 1C DEB",
        "group": "fengyun-1c-debris",
        "lat": 60.72490257359526,
        "lon": -112.16167967792371,
        "alt_km": 809.9889396918688,
        "timestamp": "2025-12-14T18:52:55.793073+00:00",
        "meta_object_name": "FENGYUN 1C DEB",
        "meta_object_id": "1999-025EPB",
        "meta_epoch": "2025-12-13T17:37:50.725632",
        "meta_mean_motion": 14.24229459,
        "meta_eccentricity": 0.00541642,
        "meta_inclination": 98.7242,
        "meta_ra_of_asc_node": 50.8972,
        "meta_arg_of_pericenter": 218.5422,
        "meta_mean_anomaly": 268.5396,
        "meta_ephemeris_type": 0,
        "meta_classification_type": "U",
        "meta_norad_cat_id": 37926,
        "meta_element_set_no": 999,
        "meta_rev_at_epoch": 74284,
        "meta_bstar": 0.0019424014,
        "meta_mean_motion_dot": 4.506e-05,
        "meta_mean_motion_ddot": 0,
        "tle_line1": "1 37926U 99025EPB 25347.73461488  .00004506  00000+0  19424-2 0  9990",
        "tle_line2": "2 37926  98.7242  50.8972 0054164 218.5422 268.5396 14.24229459742842"
      },
      "geometry": {
        "type": "Point",
        "coordinates": [
          -112.16167967792371,
          60.72490257359526
        ]
      }
    },
    {
      "type": "Feature",
      "properties": {
        "norad_id": 37927,
        "name": "FENGYUN 1C DEB",
        "group": "fengyun-1c-debris",
        "lat": 73.3714879300962,
        "lon": 101.3621403245339,
        "alt_km": 653.4726960009866,
        "timestamp": "2025-12-14T18:52:55.793083+00:00",
        "meta_object_name": "FENGYUN 1C DEB",
        "meta_object_id": "1999-025EPC",
        "meta_epoch": "2025-12-13T03:22:49.865088",
        "meta_mean_motion": 14.71770998,
        "meta_eccentricity": 0.0007968,
        "meta_inclination": 98.8073,
        "meta_ra_of_asc_node": 130.856,
        "meta_arg_of_pericenter": 272.9948,
        "meta_mean_anomaly": 87.0345,
        "meta_ephemeris_type": 0,
        "meta_classification_type": "U",
        "meta_norad_cat_id": 37927,
        "meta_element_set_no": 999,
        "meta_rev_at_epoch": 65122,
        "meta_bstar": 0.0058007342,
        "meta_mean_motion_dot": 0.0003637,
        "meta_mean_motion_ddot": 0,
        "tle_line1": "1 37927U 99025EPC 25347.14085492  .00036370  00000+0  58007-2 0  9997",
        "tle_line2": "2 37927  98.8073 130.8560 0007968 272.9948  87.0345 14.71770998651225"
      },
      "geometry": {
        "type": "Point",
        "coordinates": [
          101.3621403245339,
          73.3714879300962
        ]
      }
    },
    {
      "type": "Feature",
      "properties": {
        "norad_id": 37928,
        "name": "FENGYUN 1C DEB",
        "group": "fengyun-1c-debris",
        "lat": 58.357841836712865,
        "lon": 58.21239560532296,
        "alt_km": 765.2477839435533,
        "timestamp": "2025-12-14T18:52:55.793093+00:00",
        "meta_object_name": "FENGYUN 1C DEB",
        "meta_object_id": "1999-025EPD",
        "meta_epoch": "2025-12-05T22:06:55.639584",
        "meta_mean_motion": 14.37064476,
        "meta_eccentricity": 0.0073466,
        "meta_inclination": 98.9156,
        "meta_ra_of_asc_node": 214.2722,
        "meta_arg_of_pericenter": 52.9241,
        "meta_mean_anomaly": 307.8631,
        "meta_ephemeris_type": 0,
        "meta_classification_type": "U",
        "meta_norad_cat_id": 37928,
        "meta_element_set_no": 999,
        "meta_rev_at_epoch": 81094,
        "meta_bstar": 0.0011316154,
        "meta_mean_motion_dot": 3.419e-05,
        "meta_mean_motion_ddot": 0,
        "tle_line1": "1 37928U 99025EPD 25339.92147731  .00003419  00000+0  11316-2 0  9990",
        "tle_line2": "2 37928  98.9156 214.2722 0073466  52.9241 307.8631 14.37064476810940"
      },
      "geometry": {
        "type": "Point",
        "coordinates": [
          58.21239560532296,
          58.357841836712865
        ]
      }
    }
  ]
}